SBIRS GEO-1 (USA 230)   
1 37481U 11019A   25159.44813463  .00000116  00000+0  00000+0 0  9996
2 37481   3.7241  52.2677 0002138  16.8725  41.0606  1.00272223 51657
TELSTAR 14R             
1 37602U 11021A   25159.71087854 -.00000260  00000+0  00000+0 0  9992
2 37602   0.0323  76.6179 0003167 343.1778  30.4697  1.00271424 52090
GSAT-8                  
1 37605U 11022A   25159.66298079  .00000103  00000+0  00000+0 0  9998
2 37605   1.1654  86.6372 0002098 212.3285 252.0597  1.00272684 49478
ST-2                    
1 37606U 11022B   25159.75383755 -.00000192  00000+0  00000+0 0  9994
2 37606   0.0233  69.0756 0001930  18.4530 169.2479  1.00271538 51538
ZHONGXING-10            
1 37677U 11026A   25159.70738131 -.00000333  00000+0  00000+0 0  9990
2 37677   0.0838  91.4087 0003460  44.6214 126.4229  1.00272632 51256
SJ-11-03                
1 37730U 11030A   25159.77562682  .00000501  00000+0  10487-3 0  9998
2 37730  97.8831 133.6273 0009391 127.8359 350.6812 14.63707561742479
GLOBALSTAR M083         
1 37739U 11033A   25159.77386164 -.00000107  00000+0 -18377-4 0  9990
2 37739  51.9867  69.7081 0000481  67.0309 309.8367 12.62263791645792
GLOBALSTAR M088         
1 37740U 11033B   25159.22707405 -.00000090  00000+0  74502-4 0  9999
2 37740  52.0063 336.9120 0000921 104.0183  67.5676 12.62265378641260
GLOBALSTAR M091         
1 37741U 11033C   25159.70017891 -.00000098  00000+0  29907-4 0  9993
2 37741  52.0009 298.9716 0000823 134.8055 327.8156 12.62268491642118
GLOBALSTAR M085         
1 37742U 11033D   25159.69844833 -.00000081  00000+0  12509-3 0  9997
2 37742  51.9863 250.0227 0000600 157.5330 357.6552 12.62269099642624
GLOBALSTAR M081         
1 37743U 11033E   25159.53553573 -.00000117  00000+0 -72727-4 0  9999
2 37743  51.9956 253.3021 0000417 159.7092 213.6373 12.62266172642756
GLOBALSTAR M089         
1 37744U 11033F   25159.52545544 -.00000070  00000+0  18773-3 0  9995
2 37744  51.9910 207.5606 0000217  72.9240  75.9974 12.62264555643598
SES-3                   
1 37748U 11035A   25159.56027314 -.00000082  00000+0  00000+0 0  9998
2 37748   0.3600  86.7589 0002784 333.4941 295.6350  1.00271951 50844
KAZSAT-2                
1 37749U 11035B   25159.09814088 -.00000179  00000+0  00000+0 0  9996
2 37749   0.0389 245.9520 0000811 244.3243 248.3010  1.00270186 49647
NAVSTAR 66 (USA 232)    
1 37753U 11036A   25159.42596404 -.00000084  00000+0  00000+0 0  9993
2 37753  56.7091 346.5440 0135872  60.1646 298.5315  2.00566594101776
BEIDOU-2 IGSO-4         
1 37763U 11038A   25159.50882549  .00000065  00000+0  00000+0 0  9991
2 37763  54.5772 169.0169 0143758 231.1931 134.9810  1.00279951 50902
SJ-11-02                
1 37765U 11039A   25159.45976824  .00000436  00000+0  92740-4 0  9997
2 37765  98.3097  42.2677 0010679   0.7689 172.6288 14.63897057739268
ASTRA 1N                
1 37775U 11041A   25159.72729892  .00000139  00000+0  00000+0 0  9995
2 37775   0.0542   5.7173 0006002  50.2335 122.4196  1.00270910 40785
BSAT-3C (JCSAT-110R)    
1 37776U 11041B   25159.69265372 -.00000332  00000+0  00000+0 0  9996
2 37776   0.0105 333.9247 0000230 167.1382 115.5665  1.00272957 46734
PAKSAT-1R               
1 37779U 11042A   25159.65959245  .00000173  00000+0  00000+0 0  9997
2 37779   0.0274  79.1744 0003480   7.1878  86.3406  1.00272771 50735
HAIYANG-2A              
1 37781U 11043A   25159.70727798  .00000008  00000+0  50846-4 0  9998
2 37781  99.3319 163.5130 0000877 139.9377 220.1840 13.78816798695210
NIGERIASAT-2            
1 37789U 11044B   25159.73307528  .00000369  00000+0  69143-4 0  9995
2 37789  97.8356 145.4955 0029005 235.3841 297.8264 14.70002086735695
NIGERIASAT-X            
1 37790U 11044C   25159.51829224  .00000342  00000+0  79337-4 0  9992
2 37790  97.8254 158.5246 0013811  74.3112 285.9613 14.60443156735627
RASAT                   
1 37791U 11044D   25159.77437854  .00000425  00000+0  83348-4 0  9994
2 37791  98.0679 251.8159 0019514 297.4436 177.4593 14.67588204738407
APRIZESAT 5             
1 37792U 11044E   25159.73902111  .00000832  00000+0  11489-3 0  9992
2 37792  98.2320  78.0035 0054417 123.7853 236.8557 14.79956270743535
APRIZESAT 6             
1 37793U 11044F   25159.49471549  .00000626  00000+0  97530-4 0  9995
2 37793  98.2613  57.1568 0043246 199.1291 336.9622 14.76078146742001
SES-2                   
1 37809U 11049A   25159.56340083 -.00000176  00000+0  00000+0 0  9996
2 37809   0.0157   8.0746 0002964  72.6187 292.3226  1.00272033 50211
ARABSAT-5C              
1 37810U 11049B   25159.72738581  .00000143  00000+0  00000+0 0  9993
2 37810   0.0579  28.5898 0003648  82.0420  68.5851  1.00273794 50291
EUTELSAT 7 WEST A       
1 37816U 11051A   25159.45600362 -.00000041  00000+0  00000+0 0  9995
2 37816   0.0759  30.6974 0004349  57.6845 325.5570  1.00272386 50148
TACSAT 4                
1 37818U 11052A   25159.07665830  .00002793  00000+0  77749-3 0  9990
2 37818  62.8428  15.8854 4670477 271.8600  37.2742  6.12437641301811
QUETZSAT 1              
1 37826U 11054A   25159.42257569 -.00000222  00000+0  00000+0 0  9994
2 37826   0.0240  36.3427 0003298  54.8409 240.9968  1.00271353 46124
INTELSAT 18 (IS-18)     
1 37834U 11056A   25159.28763052  .00000072  00000+0  00000+0 0  9990
2 37834   0.0141 304.1281 0001925 132.3435 103.9998  1.00272517 50065
EUTELSAT 16A            
1 37836U 11057A   25159.72660389  .00000123  00000+0  00000+0 0  9998
2 37836   0.0696  16.6325 0005481  64.0876  94.2021  1.00273098  3586
JUGNU                   
1 37839U 11058B   25159.76288884  .00000411  00000+0  75474-4 0  9994
2 37839  19.9617  56.8016 0018508 272.4546 125.3073 14.13603556706124
SRMSAT                  
1 37841U 11058D   25159.69600115  .00000403  00000+0  75170-4 0  9998
2 37841  19.9701 159.8966 0011929  55.8287  99.6456 14.11435950704983
VIASAT-1                
1 37843U 11059A   25159.50461365 -.00000004  00000+0  00000+0 0  9996
2 37843   0.0175 321.2325 0002557 119.8729 242.5850  1.00271270 43579
GSAT0101 (GALILEO-PFM)  
1 37846U 11060A   25157.43401250 -.00000086  00000+0  00000+0 0  9998
2 37846  57.0962 351.9467 0003399  44.8327 315.2230  1.70476000 84717
GSAT0102 (GALILEO-FM2)  
1 37847U 11060B   25157.06169263 -.00000087  00000+0  00000+0 0  9994
2 37847  57.0969 351.9570 0003483   9.5037 167.3965  1.70476130 84715
SUOMI NPP               
1 37849U 11061A   25159.76635140  .00000039  00000+0  39596-4 0  9991
2 37849  98.7579  99.0425 0001129   9.3754 350.7443 14.19538290705468
COSMOS 2476 [GLONASS-M] 
1 37867U 11064A   25159.68760023 -.00000039  00000+0  00000+0 0  9998
2 37867  65.0590  85.5014 0022798 239.8291 308.5794  2.13101622105801
COSMOS 2477 [GLONASS-M] 
1 37868U 11064B   25159.47751002 -.00000040  00000+0  00000+0 0  9995
2 37868  65.0657  85.5844 0019964 241.3140 325.8620  2.13103131105794
COSMOS 2475 [GLONASS-M] 
1 37869U 11064C   25159.48497855 -.00000040  00000+0  00000+0 0  9990
2 37869  65.0726  85.6023 0025489 254.8878 274.7998  2.13101960105808
YAOGAN-12               
1 37875U 11066B   25159.74794482  .00007019  00000+0  29398-3 0  9991
2 37875  97.1664 210.6741 0011470 121.1681 239.0683 15.23774954755149
CHUANGXIN 1-03 (CX-1-03)
1 37930U 11068A   25159.81166959  .00000075  00000+0  45937-4 0  9998
2 37930  98.7127 171.9493 0015912 128.2829 356.2406 14.30423040707272
SHIYAN-4 (SY-4)         
1 37931U 11068B   25159.67446992  .00000148  00000+0  73291-4 0  9996
2 37931  98.7114 172.9993 0023395 158.9740 336.9777 14.30932531705477
ASIASAT 7               
1 37933U 11069A   25159.75944898 -.00000315  00000+0  00000+0 0  9996
2 37933   0.0662 109.5093 0001818 311.5545 215.2357  1.00271030 41116
BEIDOU-2 IGSO-5         
1 37948U 11073A   25158.75342616 -.00000213  00000+0  00000+0 0  9993
2 37948  48.3615 276.1704 0107533 219.9540 125.7871  1.00290921 49374
LUCH-5A                 
1 37951U 11074B   25159.55032010 -.00000035  00000+0  00000+0 0  9993
2 37951   7.8035  79.4050 0003236  11.3427 171.4419  1.00273315 49302
SSOT                    
1 38011U 11076E   25159.75486425  .00001071  00000+0  14125-3 0  9995
2 38011  97.8566 223.0831 0001300 101.6292  12.6126 14.82092081729067
PLEIADES 1A             
1 38012U 11076F   25159.74645588  .00000293  00000+0  72852-4 0  9999
2 38012  98.1983 235.1895 0001210 108.0439  53.4737 14.58551832717552
NIGCOMSAT 1R            
1 38014U 11077A   25159.66046126  .00000164  00000+0  00000+0 0  9994
2 38014   0.0360 151.1462 0000924 262.3572 124.0616  1.00274707 49213
ZIYUAN 1-02C (ZY 1-02C) 
1 38038U 11079A   25159.78102840  .00000392  00000+0  14462-3 0  9995
2 38038  98.4532 229.0229 0006137 356.0102 114.0251 14.37769133705544
GLOBALSTAR M084         
1 38040U 11080A   25159.75332331 -.00000110  00000+0 -34890-4 0  9995
2 38040  52.0017  74.1486 0000885  43.8630   0.0727 12.62266610621600
GLOBALSTAR M080         
1 38041U 11080B   25159.51550935 -.00000119  00000+0 -82472-4 0  9990
2 38041  52.0067  76.4612 0000750  93.5846  78.9341 12.62263276621694
GLOBALSTAR M082         
1 38042U 11080C   25159.74743222 -.00000093  00000+0  57899-4 0  9994
2 38042  52.0097  31.2161 0000874 103.2320 334.1871 12.62266497622435
GLOBALSTAR M092         
1 38043U 11080D   25159.66494543 -.00000115  00000+0 -63810-4 0  9991
2 38043  52.0074 121.8424 0000397  41.8686 140.5874 12.62264259620873
GLOBALSTAR M090         
1 38044U 11080E   25159.77318404 -.00000085  00000+0  10335-3 0  9993
2 38044  52.0145  24.9711 0000726  90.0296 345.2813 12.62273512622550
GLOBALSTAR M086         
1 38045U 11080F   25159.63481892 -.00000096  00000+0  45107-4 0  9999
2 38045  51.9919  25.9265 0000692 351.4053  55.2904 12.62271332622489
ZIYUAN 3-1 (ZY 3-1)     
1 38046U 12001A   25159.76185176  .00016788  00000+0  27277-3 0  9995
2 38046  97.1987 224.3694 0001360 305.6142  54.4984 15.52776231745857
